NORAD_CAT_ID,OBJECT_NAME,OBJECT_TYPE,EPOCH,MEAN_MOTION,ECCENTRICITY,INCLINATION,RA_OF_ASC_NODE,ARG_OF_PERICENTER,MEAN_ANOMALY,BSTAR,MEAN_MOTION_DOT,MEAN_MOTION_DDOT,TLE_LINE0,TLE_LINE1,TLE_LINE2,SEMIMAJOR_AXIS,PERIOD,APOGEE,PERIGEE,DECAYED
53246.0,STARLINK-4131,PAYLOAD,2022-11-24 08:49:31,15.08837639,0.0002688,53.2166,197.0616,34.5565,325.5602,-2.0487e-05,-6.15e-06,0.0,0 STARLINK-4131,1 53246U 22086E   22328.36772783 -.00000615  00000-0 -20487-4 0  9997,2 53246  53.2166 197.0616 0002688  34.5565 325.5602 15.08837639 18773,6917.888000000001,95.438,541.612,537.893,0.0
53246.0,STARLINK-4131,PAYLOAD,2022-11-24 21:32:36,15.08836854,0.000262,53.2165,194.6826,34.7362,325.3801,4.0007e-05,3.48e-06,0.0,0 STARLINK-4131,1 53246U 22086E   22328.89764605  .00000348  00000-0  40007-4 0  9990,2 53246  53.2165 194.6826 0002620  34.7362 325.3801 15.08836854 18857,6917.89,95.438,541.567,537.943,0.0
53246.0,STARLINK-4131,PAYLOAD,2022-11-25 00:43:22,15.08839283,0.0002655,53.2165,194.088,35.2178,324.8989,6.018e-05,6.69e-06,0.0,0 STARLINK-4131,1 53246U 22086E   22329.03012421  .00000669  00000-0  60180-4 0  9999,2 53246  53.2165 194.0880 0002655  35.2178 324.8989 15.08839283 19480,6917.8830000000025,95.438,541.5840000000002,537.911,0.0
53246.0,STARLINK-4131,PAYLOAD,2022-11-25 21:23:22,15.08849159,0.0002719,53.2166,190.2225,36.204,323.9136,8.361e-05,1.043e-05,0.0,0 STARLINK-4131,1 53246U 22086E   22329.89123660  .00001043  00000-0  83610-4 0  9991,2 53246  53.2166 190.2225 0002719  36.2040 323.9136 15.08849159 19007,6917.852,95.437,541.5980000000002,537.836,0.0
53246.0,STARLINK-4131,PAYLOAD,2022-11-25 22:58:45,15.08846216,0.0002746,53.2165,189.9253,36.7414,323.3766,0.00015651,2.204e-05,0.0,0 STARLINK-4131,1 53246U 22086E   22329.95747661  .00002204  00000-0  15651-3 0  9990,2 53246  53.2165 189.9253 0002746  36.7414 323.3766 15.08846216 19624,6917.861,95.437,541.626,537.827,0.0
53246.0,STARLINK-4131,PAYLOAD,2022-11-26 21:14:09,15.08844685,0.0002798,53.2164,185.7619,39.7232,320.3965,0.00010603,1.4e-05,0.0,0 STARLINK-4131,1 53246U 22086E   22330.88483635  .00001400  00000-0  10603-3 0  9991,2 53246  53.2164 185.7619 0002798  39.7232 320.3965 15.08844685 19155,6917.866,95.437,541.6669999999998,537.795,0.0
53246.0,STARLINK-4131,PAYLOAD,2022-11-27 00:24:56,15.08842741,0.00028,53.2165,185.1672,39.366,320.7535,6.8115e-05,7.96e-06,0.0,0 STARLINK-4131,1 53246U 22086E   22331.01731818  .00000796  00000-0  68115-4 0  9995,2 53246  53.2165 185.1672 0002800  39.3660 320.7535 15.08842741 19781,6917.871999999999,95.437,541.674,537.8,0.0
53246.0,STARLINK-4131,PAYLOAD,2022-11-27 17:54:11,15.08838276,0.0002845,53.2169,181.8953,41.4716,318.6491,-7.3588e-05,-1.46e-05,0.0,0 STARLINK-4131,1 53246U 22086E   22331.74596337 -.00001460  00000-0 -73588-4 0  9991,2 53246  53.2169 181.8953 0002845  41.4716 318.6491 15.08838276 19892,6917.886,95.438,541.719,537.783,0.0
53246.0,STARLINK-4131,PAYLOAD,2022-11-28 12:58:48,15.08835588,0.0002836,53.2163,178.3271,40.3084,319.8118,4.8964e-07,-2.81e-06,0.0,0 STARLINK-4131,1 53246U 22086E   22332.54084250 -.00000281  00000-0  48964-6 0  9997,2 53246  53.2163 178.3271 0002836  40.3084 319.8118 15.08835588 19405,6917.894,95.438,541.721,537.797,0.0
53246.0,STARLINK-4131,PAYLOAD,2022-11-29 00:06:30,15.08837929,0.0002865,53.2162,176.24599999999995,41.2518,318.869,2.1197e-05,4.9e-07,0.0,0 STARLINK-4131,1 53246U 22086E   22333.00452108  .00000049  00000-0  21197-4 0  9998,2 53246  53.2162 176.2460 0002865  41.2518 318.8690 15.08837929 20086,6917.887,95.438,541.734,537.77,0.0
53246.0,STARLINK-4131,PAYLOAD,2022-11-29 16:00:21,15.08837752,0.0002813,53.2163,173.2725,41.6599,318.4607,0.00011005,1.463e-05,0.0,0 STARLINK-4131,1 53246U 22086E   22333.66691905  .00001463  00000-0  11005-3 0  9997,2 53246  53.2163 173.2725 0002813  41.6599 318.4607 15.08837752 19574,6917.887,95.438,541.698,537.806,0.0
53246.0,STARLINK-4131,PAYLOAD,2022-11-30 01:32:41,15.088301199999998,0.0003012,53.2158,171.4889,39.5513,320.5699,3.9011e-05,3.32e-06,0.0,0 STARLINK-4131,1 53246U 22086E   22334.06436813  .00000332  00000-0  39011-4 0  9999,2 53246  53.2158 171.4889 0003012  39.5513 320.5699 15.08830120 20246,6917.911,95.438,541.859,537.692,0.0
53246.0,STARLINK-4131,PAYLOAD,2022-11-30 06:18:51,15.08828193,0.0002867,53.2161,170.5961,42.863,317.2585,6.9997e-06,-1.77e-06,0.0,0 STARLINK-4131,1 53246U 22086E   22334.26309113 -.00000177  00000-0  69997-5 0  9998,2 53246  53.2161 170.5961 0002867  42.8630 317.2585 15.08828193 19663,6917.916,95.438,541.765,537.798,0.0
53246.0,STARLINK-4131,PAYLOAD,2022-11-30 15:51:09,15.08830876,0.0002815,53.2162,168.8119,43.1836,316.9377,-4.8549e-07,-2.96e-06,0.0,0 STARLINK-4131,1 53246U 22086E   22334.66053179 -.00000296  00000-0 -48549-6 0  9994,2 53246  53.2162 168.8119 0002815  43.1836 316.9377 15.08830876 19727,6917.908,95.438,541.721,537.826,0.0
53246.0,STARLINK-4131,PAYLOAD,2022-12-01 01:23:28,15.088328099999998,0.0002871,53.216,167.0277,43.183,316.9387,-1.3137e-05,-4.98e-06,0.0,0 STARLINK-4131,1 53246U 22086E   22335.05797300 -.00000498  00000-0 -13137-4 0  9996,2 53246  53.2160 167.0277 0002871  43.1830 316.9387 15.08832810 19784,6917.901999999999,95.438,541.753,537.781,0.0
53246.0,STARLINK-4131,PAYLOAD,2022-12-01 18:52:43,15.08841095,0.0002868,53.216,163.7565,45.4463,314.6763,-2.0932e-05,-6.22e-06,0.0,0 STARLINK-4131,1 53246U 22086E   22335.78661022 -.00000622  00000-0 -20932-4 0  9997,2 53246  53.2160 163.7565 0002868  45.4463 314.6763 15.08841095 20500,6917.877,95.437,541.726,537.758,0.0
53246.0,STARLINK-4131,PAYLOAD,2022-12-02 12:21:57,15.0883577,0.0002906,53.2163,160.4855,46.3143,313.8089,0.00011093,1.477e-05,0.0,0 STARLINK-4131,1 53246U 22086E   22336.51525209  .00001477  00000-0  11093-3 0  9999,2 53246  53.2163 160.4855 0002906  46.3143 313.8089 15.08835770 20007,6917.893,95.438,541.769,537.748,0.0
53246.0,STARLINK-4131,PAYLOAD,2022-12-02 18:43:30,15.0883941,0.0002943,53.2164,159.2964,46.8928,313.231,0.0001250999999999,1.703e-05,0.0,0 STARLINK-4131,1 53246U 22086E   22336.78021027  .00001703  00000-0  12510-3 0  9994,2 53246  53.2164 159.2964 0002943  46.8928 313.2310 15.08839410 20042,6917.882,95.438,541.783,537.711,0.0
53246.0,STARLINK-4131,PAYLOAD,2022-12-02 21:54:16,15.08840583,0.0002955,53.2163,158.7016,47.2216,312.9024,0.00012245,1.661e-05,0.0,0 STARLINK-4131,1 53246U 22086E   22336.91268971  .00001661  00000-0  12245-3 0  9998,2 53246  53.2163 158.7016 0002955  47.2216 312.9024 15.08840583 20671,6917.879,95.438,541.788,537.6990000000002,0.0
53246.0,STARLINK-4131,PAYLOAD,2022-12-03 05:51:11,15.0884259,0.0002973,53.2164,157.2148,47.8005,312.324,0.00012379,1.682e-05,0.0,0 STARLINK-4131,1 53246U 22086E   22337.24388878  .00001682  00000-0  12379-3 0  9995,2 53246  53.2164 157.2148 0002973  47.8005 312.3240 15.08842590 20117,6917.871999999999,95.437,541.794,537.681,0.0
53246.0,STARLINK-4131,PAYLOAD,2022-12-03 15:23:30,15.08846195,0.0002981,53.2162,155.4304,48.615,311.5098,0.00011703,1.575e-05,0.0,0 STARLINK-4131,1 53246U 22086E   22337.64132588  .00001575  00000-0  11703-3 0  9995,2 53246  53.2162 155.4304 0002981  48.6150 311.5098 15.08846195 20171,6917.861,95.437,541.789,537.664,0.0
53246.0,STARLINK-4131,PAYLOAD,2022-12-03 23:20:25,15.08848563,0.000299,53.2162,153.9434,49.3614,310.7637,0.00013058,1.791e-05,0.0,0 STARLINK-4131,1 53246U 22086E   22337.97252309  .00001791  00000-0  13058-3 0  9990,2 53246  53.2162 153.9434 0002990  49.3614 310.7637 15.08848563 20835,6917.854,95.437,541.788,537.651,0.0
53246.0,STARLINK-4131,PAYLOAD,2022-12-04 12:03:31,15.08842513,0.0003042,53.2162,151.5645,50.925,309.2013,4.3875e-05,4.1e-06,0.0,0 STARLINK-4131,1 53246U 22086E   22338.50244787  .00000410  00000-0  43875-4 0  9999,2 53246  53.2162 151.5645 0003042  50.9250 309.2013 15.08842513 20308,6917.873000000001,95.437,541.842,537.633,0.0
53246.0,STARLINK-4131,PAYLOAD,2022-12-04 18:25:04,15.08839117,0.0003038,53.2163,150.3749,51.48,308.6464,1.1305e-05,-1.09e-06,0.0,0 STARLINK-4131,1 53246U 22086E   22338.76741037 -.00000109  00000-0  11305-4 0  9996,2 53246  53.2163 150.3749 0003038  51.4800 308.6464 15.08839117 20953,6917.8830000000025,95.438,541.85,537.646,0.0
53246.0,STARLINK-4131,PAYLOAD,2022-12-05 11:54:18,15.08843155,0.0003032,53.2169,147.1034,51.4375,308.6889,1.8565e-05,7e-08,0.0,0 STARLINK-4131,1 53246U 22086E   22339.49604647  .00000007  00000-0  18565-4 0  9993,2 53246  53.2169 147.1034 0003032  51.4375 308.6889 15.08843155 20454,6917.871,95.437,541.8330000000002,537.638,0.0
53246.0,STARLINK-4131,PAYLOAD,2022-12-05 18:15:50,15.08848022,0.0003028,53.2168,145.9143,50.8751,309.251,2.4437e-05,1e-06,0.0,0 STARLINK-4131,1 53246U 22086E   22339.76100229  .00000100  00000-0  24437-4 0  9999,2 53246  53.2168 145.9143 0003028  50.8751 309.2510 15.08848022 21105,6917.856,95.437,541.816,537.626,0.0
53246.0,STARLINK-4131,PAYLOAD,2022-12-06 03:48:10,15.08837567,0.0003075,53.2166,144.1303,51.1369,308.9897,-6.131e-05,-1.264e-05,0.0,0 STARLINK-4131,1 53246U 22086E   22340.15845151 -.00001264  00000-0 -61310-4 0  9999,2 53246  53.2166 144.1303 0003075  51.1369 308.9897 15.08837567 21165,6917.888000000001,95.438,541.88,537.626,0.0
53246.0,STARLINK-4131,PAYLOAD,2022-12-06 10:09:42,15.08835802,0.0003056,53.2171,142.9409,51.0539,309.0725,-1.119e-05,-4.67e-06,0.0,0 STARLINK-4131,1 53246U 22086E   22340.42341190 -.00000467  00000-0 -11190-4 0  9998,2 53246  53.2171 142.9409 0003056  51.0539 309.0725 15.08835802 20599,6917.893,95.438,541.872,537.644,0.0
53246.0,STARLINK-4131,PAYLOAD,2022-12-06 18:06:38,15.08833841,0.0002997,53.2164,141.4539,50.9207,309.2052,5.0812e-05,5.2e-06,0.0,0 STARLINK-4131,1 53246U 22086E   22340.75461284  .00000520  00000-0  50812-4 0  9993,2 53246  53.2164 141.4539 0002997  50.9207 309.2052 15.08833841 20644,6917.899,95.438,541.8380000000002,537.691,0.0
